[
  {
    "OBJECT_NAME": "STARLINK-30224",
    "OBJECT_ID": "23102N",
    "EPOCH": "2025-11-10T23:42:02.887488",
    "MEAN_MOTION": 15.02541834,
    "ECCENTRICITY": 0.000123,
    "INCLINATION": 43.0026,
    "RA_OF_ASC_NODE": 173.5966,
    "ARG_OF_PERICENTER": 273.3125,
    "MEAN_ANOMALY": 86.7577,
    "EPHEMERIS_TYPE": 0,
    "CLASSIFICATION_TYPE": "U",
    "NORAD_CAT_ID": 57416,
    "ELEMENT_SET_NO": 999,
    "REV_AT_EPOCH": 12838,
    "BSTAR": 0.00017594000000000003,
    "MEAN_MOTION_DOT": 2.174e-05,
    "MEAN_MOTION_DDOT": 0.0,
    "TLE_LINE1": "1 57416U 23102N   25314.98753342  .00002174  00000+0  17594-3 0  9999",
    "TLE_LINE2": "2 57416  43.0026 173.5966 0001230 273.3125  86.7577 15.02541834128381",
    "COMMENT": "Grouped by shell and plane from TLE"
  },
  {
    "OBJECT_NAME": "STARLINK-30043",
    "OBJECT_ID": "23102P",
    "EPOCH": "2025-11-11T01:08:11.856480",
    "MEAN_MOTION": 15.02525376,
    "ECCENTRICITY": 0.0001141,
    "INCLINATION": 43.0028,
    "RA_OF_ASC_NODE": 173.182,
    "ARG_OF_PERICENTER": 269.8915,
    "MEAN_ANOMALY": 90.1797,
    "EPHEMERIS_TYPE": 0,
    "CLASSIFICATION_TYPE": "U",
    "NORAD_CAT_ID": 57417,
    "ELEMENT_SET_NO": 999,
    "REV_AT_EPOCH": 12839,
    "BSTAR": 0.00011453,
    "MEAN_MOTION_DOT": 1.343e-05,
    "MEAN_MOTION_DDOT": 0.0,
    "TLE_LINE1": "1 57417U 23102P   25315.04735945  .00001343  00000+0  11453-3 0  9992",
    "TLE_LINE2": "2 57417  43.0028 173.1820 0001141 269.8915  90.1797 15.02525376128394",
    "COMMENT": "Grouped by shell and plane from TLE"
  },
  {
    "OBJECT_NAME": "STARLINK-30221",
    "OBJECT_ID": "23102Q",
    "EPOCH": "2025-11-10T23:37:14.979360",
    "MEAN_MOTION": 15.02534182,
    "ECCENTRICITY": 8.2e-05,
    "INCLINATION": 43.0021,
    "RA_OF_ASC_NODE": 173.5689,
    "ARG_OF_PERICENTER": 278.9663,
    "MEAN_ANOMALY": 81.1087,
    "EPHEMERIS_TYPE": 0,
    "CLASSIFICATION_TYPE": "U",
    "NORAD_CAT_ID": 57418,
    "ELEMENT_SET_NO": 999,
    "REV_AT_EPOCH": 12838,
    "BSTAR": 7.0212e-05,
    "MEAN_MOTION_DOT": 7.45e-06,
    "MEAN_MOTION_DDOT": 0.0,
    "TLE_LINE1": "1 57418U 23102Q   25314.98420115  .00000745  00000+0  70212-4 0  9999",
    "TLE_LINE2": "2 57418  43.0021 173.5689 0000820 278.9663  81.1087 15.02534182128385",
    "COMMENT": "Grouped by shell and plane from TLE"
  },
  {
    "OBJECT_NAME": "STARLINK-30162",
    "OBJECT_ID": "23105S",
    "EPOCH": "2025-11-11T00:44:17.355552",
    "MEAN_MOTION": 15.02535337,
    "ECCENTRICITY": 0.0001032,
    "INCLINATION": 43.0026,
    "RA_OF_ASC_NODE": 173.4592,
    "ARG_OF_PERICENTER": 261.6865,
    "MEAN_ANOMALY": 98.386,
    "EPHEMERIS_TYPE": 0,
    "CLASSIFICATION_TYPE": "U",
    "NORAD_CAT_ID": 57446,
    "ELEMENT_SET_NO": 999,
    "REV_AT_EPOCH": 12786,
    "BSTAR": 2.3348e-05,
    "MEAN_MOTION_DOT": 1.12e-06,
    "MEAN_MOTION_DDOT": 0.0,
    "TLE_LINE1": "1 57446U 23105S   25315.03075643  .00000112  00000+0  23348-4 0  9998",
    "TLE_LINE2": "2 57446  43.0026 173.4592 0001032 261.6865  98.3860 15.02535337127866",
    "COMMENT": "Grouped by shell and plane from TLE"
  },
  {
    "OBJECT_NAME": "STARLINK-30217",
    "OBJECT_ID": "23105W",
    "EPOCH": "2025-11-11T00:20:19.315680",
    "MEAN_MOTION": 15.02533921,
    "ECCENTRICITY": 0.0001205,
    "INCLINATION": 43.0027,
    "RA_OF_ASC_NODE": 173.3856,
    "ARG_OF_PERICENTER": 263.2149,
    "MEAN_ANOMALY": 96.8556,
    "EPHEMERIS_TYPE": 0,
    "CLASSIFICATION_TYPE": "U",
    "NORAD_CAT_ID": 57450,
    "ELEMENT_SET_NO": 999,
    "REV_AT_EPOCH": 12786,
    "BSTAR": 0.00014282000000000002,
    "MEAN_MOTION_DOT": 1.726e-05,
    "MEAN_MOTION_DDOT": 0.0,
    "TLE_LINE1": "1 57450U 23105W   25315.01411245  .00001726  00000+0  14282-3 0  9991",
    "TLE_LINE2": "2 57450  43.0027 173.3856 0001205 263.2149  96.8556 15.02533921127861",
    "COMMENT": "Grouped by shell and plane from TLE"
  },
  {
    "OBJECT_NAME": "STARLINK-30284",
    "OBJECT_ID": "23144P",
    "EPOCH": "2025-11-11T00:58:44.286240",
    "MEAN_MOTION": 15.02533426,
    "ECCENTRICITY": 0.0001145,
    "INCLINATION": 42.9999,
    "RA_OF_ASC_NODE": 173.864,
    "ARG_OF_PERICENTER": 267.663,
    "MEAN_ANOMALY": 92.4081,
    "EPHEMERIS_TYPE": 0,
    "CLASSIFICATION_TYPE": "U",
    "NORAD_CAT_ID": 57877,
    "ELEMENT_SET_NO": 999,
    "REV_AT_EPOCH": 12020,
    "BSTAR": 8.071300000000001e-05,
    "MEAN_MOTION_DOT": 8.87e-06,
    "MEAN_MOTION_DDOT": 0.0,
    "TLE_LINE1": "1 57877U 23144P   25315.04079035  .00000887  00000+0  80713-4 0  9997",
    "TLE_LINE2": "2 57877  42.9999 173.8640 0001145 267.6630  92.4081 15.02533426120208",
    "COMMENT": "Grouped by shell and plane from TLE"
  },
  {
    "OBJECT_NAME": "STARLINK-33863",
    "OBJECT_ID": "25094A",
    "EPOCH": "2025-11-11T00:38:15.844992",
    "MEAN_MOTION": 14.98340541,
    "ECCENTRICITY": 0.000167,
    "INCLINATION": 69.9987,
    "RA_OF_ASC_NODE": 173.8538,
    "ARG_OF_PERICENTER": 276.0686,
    "MEAN_ANOMALY": 84.0282,
    "EPHEMERIS_TYPE": 0,
    "CLASSIFICATION_TYPE": "U",
    "NORAD_CAT_ID": 63864,
    "ELEMENT_SET_NO": 999,
    "REV_AT_EPOCH": 2942,
    "BSTAR": 0.00045821,
    "MEAN_MOTION_DOT": 5.38e-05,
    "MEAN_MOTION_DDOT": 0.0,
    "TLE_LINE1": "1 63864U 25094A   25315.02657228  .00005380  00000+0  45821-3 0  9993",
    "TLE_LINE2": "2 63864  69.9987 173.8538 0001670 276.0686  84.0282 14.98340541 29421",
    "COMMENT": "Grouped by shell and plane from TLE"
  },
  {
    "OBJECT_NAME": "STARLINK-33897",
    "OBJECT_ID": "25094B",
    "EPOCH": "2025-11-11T01:32:20.960736",
    "MEAN_MOTION": 14.98322976,
    "ECCENTRICITY": 0.0002618,
    "INCLINATION": 69.9995,
    "RA_OF_ASC_NODE": 173.5782,
    "ARG_OF_PERICENTER": 275.103,
    "MEAN_ANOMALY": 84.9831,
    "EPHEMERIS_TYPE": 0,
    "CLASSIFICATION_TYPE": "U",
    "NORAD_CAT_ID": 63865,
    "ELEMENT_SET_NO": 999,
    "REV_AT_EPOCH": 2965,
    "BSTAR": 0.0012947,
    "MEAN_MOTION_DOT": 0.00015386,
    "MEAN_MOTION_DDOT": 0.0,
    "TLE_LINE1": "1 63865U 25094B   25315.06413149  .00015386  00000+0  12947-2 0  9999",
    "TLE_LINE2": "2 63865  69.9995 173.5782 0002618 275.1030  84.9831 14.98322976 29651",
    "COMMENT": "Grouped by shell and plane from TLE"
  },
  {
    "OBJECT_NAME": "STARLINK-34022",
    "OBJECT_ID": "25094C",
    "EPOCH": "2025-11-11T00:14:28.308768",
    "MEAN_MOTION": 14.98318482,
    "ECCENTRICITY": 0.0002574,
    "INCLINATION": 69.9997,
    "RA_OF_ASC_NODE": 173.7894,
    "ARG_OF_PERICENTER": 269.4588,
    "MEAN_ANOMALY": 90.6276,
    "EPHEMERIS_TYPE": 0,
    "CLASSIFICATION_TYPE": "U",
    "NORAD_CAT_ID": 63866,
    "ELEMENT_SET_NO": 999,
    "REV_AT_EPOCH": 2942,
    "BSTAR": 0.0,
    "MEAN_MOTION_DOT": -2.89e-06,
    "MEAN_MOTION_DDOT": 0.0,
    "TLE_LINE1": "1 63866U 25094C   25315.01004987 -.00000289  00000+0 -16476-4 0  9992",
    "TLE_LINE2": "2 63866  69.9997 173.7894 0002574 269.4588  90.6276 14.98318482 29424",
    "COMMENT": "Grouped by shell and plane from TLE"
  },
  {
    "OBJECT_NAME": "STARLINK-33979",
    "OBJECT_ID": "25094D",
    "EPOCH": "2025-11-11T01:38:19.671936",
    "MEAN_MOTION": 14.98340501,
    "ECCENTRICITY": 0.0002372,
    "INCLINATION": 70.0002,
    "RA_OF_ASC_NODE": 173.5947,
    "ARG_OF_PERICENTER": 270.045,
    "MEAN_ANOMALY": 90.0437,
    "EPHEMERIS_TYPE": 0,
    "CLASSIFICATION_TYPE": "U",
    "NORAD_CAT_ID": 63867,
    "ELEMENT_SET_NO": 999,
    "REV_AT_EPOCH": 2943,
    "BSTAR": 0.00039679,
    "MEAN_MOTION_DOT": 4.646e-05,
    "MEAN_MOTION_DDOT": 0.0,
    "TLE_LINE1": "1 63867U 25094D   25315.06828324  .00004646  00000+0  39679-3 0  9995",
    "TLE_LINE2": "2 63867  70.0002 173.5947 0002372 270.0450  90.0437 14.98340501 29435",
    "COMMENT": "Grouped by shell and plane from TLE"
  },
  {
    "OBJECT_NAME": "STARLINK-34007",
    "OBJECT_ID": "25094E",
    "EPOCH": "2025-11-11T00:32:14.928864",
    "MEAN_MOTION": 14.98340271,
    "ECCENTRICITY": 0.0003031,
    "INCLINATION": 69.9965,
    "RA_OF_ASC_NODE": 173.8353,
    "ARG_OF_PERICENTER": 270.1496,
    "MEAN_ANOMALY": 89.9316,
    "EPHEMERIS_TYPE": 0,
    "CLASSIFICATION_TYPE": "U",
    "NORAD_CAT_ID": 63868,
    "ELEMENT_SET_NO": 999,
    "REV_AT_EPOCH": 2942,
    "BSTAR": 0.00051267,
    "MEAN_MOTION_DOT": 6.031e-05,
    "MEAN_MOTION_DDOT": 0.0,
    "TLE_LINE1": "1 63868U 25094E   25315.02239501  .00006031  00000+0  51267-3 0  9992",
    "TLE_LINE2": "2 63868  69.9965 173.8353 0003031 270.1496  89.9316 14.98340271 29425",
    "COMMENT": "Grouped by shell and plane from TLE"
  },
  {
    "OBJECT_NAME": "STARLINK-34006",
    "OBJECT_ID": "25094F",
    "EPOCH": "2025-11-11T01:08:30.708096",
    "MEAN_MOTION": 14.98338143,
    "ECCENTRICITY": 0.0002797,
    "INCLINATION": 70.0003,
    "RA_OF_ASC_NODE": 173.5178,
    "ARG_OF_PERICENTER": 269.4716,
    "MEAN_ANOMALY": 90.6122,
    "EPHEMERIS_TYPE": 0,
    "CLASSIFICATION_TYPE": "U",
    "NORAD_CAT_ID": 63869,
    "ELEMENT_SET_NO": 999,
    "REV_AT_EPOCH": 2943,
    "BSTAR": 0.00028185,
    "MEAN_MOTION_DOT": 3.272e-05,
    "MEAN_MOTION_DDOT": 0.0,
    "TLE_LINE1": "1 63869U 25094F   25315.04757764  .00003272  00000+0  28185-3 0  9998",
    "TLE_LINE2": "2 63869  70.0003 173.5178 0002797 269.4716  90.6122 14.98338143 29438",
    "COMMENT": "Grouped by shell and plane from TLE"
  },
  {
    "OBJECT_NAME": "STARLINK-33986",
    "OBJECT_ID": "25094G",
    "EPOCH": "2025-11-10T23:44:11.057568",
    "MEAN_MOTION": 14.98323947,
    "ECCENTRICITY": 0.0004032,
    "INCLINATION": 69.9985,
    "RA_OF_ASC_NODE": 173.7131,
    "ARG_OF_PERICENTER": 261.3749,
    "MEAN_ANOMALY": 98.6953,
    "EPHEMERIS_TYPE": 0,
    "CLASSIFICATION_TYPE": "U",
    "NORAD_CAT_ID": 63870,
    "ELEMENT_SET_NO": 999,
    "REV_AT_EPOCH": 2942,
    "BSTAR": 0.0016911,
    "MEAN_MOTION_DOT": 0.00020141,
    "MEAN_MOTION_DDOT": 0.0,
    "TLE_LINE1": "1 63870U 25094G   25314.98901687  .00020141  00000+0  16911-2 0  9994",
    "TLE_LINE2": "2 63870  69.9985 173.7131 0004032 261.3749  98.6953 14.98323947 29423",
    "COMMENT": "Grouped by shell and plane from TLE"
  }
]